{"type": "FeatureCollection", "features": [ {"type": "Feature", "properties": {"norad_id": 32350, "name": "FENGYUN 1C DEB", "group": "fengyun-1c-debris", "lat": 48.711163910705984, "lon": -147.45610091872535, "alt_km": 896.7792370176594, "timestamp": "2025-12-04T03:47:54.829374+00:00", "meta": {"OBJECT_NAME": "FENGYUN 1C DEB", "OBJECT_ID": "1999-025CYT", "EPOCH": "2025-12-03T09:00:31.237920", "MEAN_MOTION": 14.524285, "ECCENTRICITY": 0.0267693, "INCLINATION": 98.2296, "RA_OF_ASC_NODE": 22.2895, "ARG_OF_PERICENTER": 327.5757, "MEAN_ANOMALY": 30.9229, "EPHEMERIS_TYPE": 0, "CLASSIFICATION_TYPE": "U", "NORAD_CAT_ID": 32350, "ELEMENT_SET_NO": 999, "REV_AT_EPOCH": 97391, "BSTAR": 0.0009364, "MEAN_MOTION_DOT": 6.068e-05, "MEAN_MOTION_DDOT": 0}, "tle": {"line1": "1 32350U 99025CYT 25337.37536155  .00006068  00000+0  93640-3 0  9997", "line2": "2 32350  98.2296  22.2895 0267693 327.5757  30.9229 14.52428500973913"}}, "geometry": {"type": "Point", "coordinates": [-147.45610091872535, 48.711163910705984]}}, {"type": "Feature", "properties": {"norad_id": 32352, "name": "FENGYUN 1C DEB", "group": "fengyun-1c-debris", "lat": -33.74100722422735, "lon": 72.00767791156927, "alt_km": 677.3512544752957, "timestamp": "2025-12-04T03:47:54.829384+00:00", "meta": {"OBJECT_NAME": "FENGYUN 1C DEB", "OBJECT_ID": "1999-025CYV", "EPOCH": "2025-11-20T12:15:50.090688", "MEAN_MOTION": 14.41367482, "ECCENTRICITY": 0.01211409, "INCLINATION": 98.777, "RA_OF_ASC_NODE": 243.9147, "ARG_OF_PERICENTER": 237.6539, "MEAN_ANOMALY": 121.2876, "EPHEMERIS_TYPE": 0, "CLASSIFICATION_TYPE": "U", "NORAD_CAT_ID": 32352, "ELEMENT_SET_NO": 999, "REV_AT_EPOCH": 64949, "BSTAR": 0.00030092494, "MEAN_MOTION_DOT": 1.012e-05, "MEAN_MOTION_DDOT": 0}, "tle": {"line1": "1 32352U 99025CYV 25324.51099642  .00001012  00000+0  30092-3 0  9992", "line2": "2 32352  98.7770 243.9147 0121140 237.6539 121.2876 14.41367482649498"}}, "geometry": {"type": "Point", "coordinates": [72.00767791156927, -33.74100722422735]}}, {"type": "Feature", "properties": {"norad_id": 32353, "name": "FENGYUN 1C DEB", "group": "fengyun-1c-debris", "lat": 73.18154320984327, "lon": 6.08396955739562, "alt_km": 916.190233020684, "timestamp": "2025-12-04T03:47:54.829394+00:00", "meta": {"OBJECT_NAME": "FENGYUN 1C DEB", "OBJECT_ID": "1999-025CYW", "EPOCH": "2025-11-11T06:05:01.772736", "MEAN_MOTION": 14.03377644, "ECCENTRICITY": 0.01260396, "INCLINATION": 98.9214, "RA_OF_ASC_NODE": 132.3044, "ARG_OF_PERICENTER": 286.1717, "MEAN_ANOMALY": 72.5609, "EPHEMERIS_TYPE": 0, "CLASSIFICATION_TYPE": "U", "NORAD_CAT_ID": 32353, "ELEMENT_SET_NO": 999, "REV_AT_EPOCH": 62752, "BSTAR": 0.0037928572, "MEAN_MOTION_DOT": 6.321e-05, "MEAN_MOTION_DDOT": 0}, "tle": {"line1": "1 32353U 99025CYW 25315.25349274  .00006321  00000+0  37929-2 0  9996", "line2": "2 32353  98.9214 132.3044 0126039 286.1717  72.5609 14.03377644627521"}}, "geometry": {"type": "Point", "coordinates": [6.08396955739562, 73.18154320984327]}}, {"type": "Feature", "properties": {"norad_id": 32355, "name": "FENGYUN 1C DEB", "group": "fengyun-1c-debris", "lat": 79.09667429850232, "lon": -168.1394070745595, "alt_km": 447.84211193526426, "timestamp": "2025-12-04T03:47:54.829404+00:00", "meta": {"OBJECT_NAME": "FENGYUN 1C DEB", "OBJECT_ID": "1999-025CYY", "EPOCH": "2025-11-30T13:45:12.852288", "MEAN_MOTION": 15.2698689, "ECCENTRICITY": 0.00340494, "INCLINATION": 100.3462, "RA_OF_ASC_NODE": 258.4114, "ARG_OF_PERICENTER": 91.868, "MEAN_ANOMALY": 83.2659, "EPHEMERIS_TYPE": 0, "CLASSIFICATION_TYPE": "U", "NORAD_CAT_ID": 32355, "ELEMENT_SET_NO": 999, "REV_AT_EPOCH": 64804, "BSTAR": 0.0114101, "MEAN_MOTION_DOT": 0.00320062, "MEAN_MOTION_DDOT": 0}, "tle": {"line1": "1 32355U 99025CYY 25334.57306542  .00320062  00000+0  11410-1 0  9992", "line2": "2 32355 100.3462 258.4114 0034049  91.8680  83.2659 15.26986890648042"}}, "geometry": {"type": "Point", "coordinates": [-168.1394070745595, 79.09667429850232]}}, {"type": "Feature", "properties": {"norad_id": 32356, "name": "FENGYUN 1C DEB", "group": "fengyun-1c-debris", "lat": -50.24306380288649, "lon": -147.3106313500732, "alt_km": 884.9766115563289, "timestamp": "2025-12-04T03:47:54.829414+00:00", "meta": {"OBJECT_NAME": "FENGYUN 1C DEB", "OBJECT_ID": "1999-025CYZ", "EPOCH": "2025-12-02T19:31:55.938432", "MEAN_MOTION": 14.03271885, "ECCENTRICITY": 0.01242517, "INCLINATION": 102.4963, "RA_OF_ASC_NODE": 195.3889, "ARG_OF_PERICENTER": 39.4468, "MEAN_ANOMALY": 321.5651, "EPHEMERIS_TYPE": 0, "CLASSIFICATION_TYPE": "U", "NORAD_CAT_ID": 32356, "ELEMENT_SET_NO": 999, "REV_AT_EPOCH": 68248, "BSTAR": 0.0027973607, "MEAN_MOTION_DOT": 4.604e-05, "MEAN_MOTION_DDOT": 0}, "tle": {"line1": "1 32356U 99025CYZ 25336.81384188  .00004604  00000+0  27974-2 0  9998", "line2": "2 32356 102.4963 195.3889 0124251  39.4468 321.5651 14.03271885682488"}}, "geometry": {"type": "Point", "coordinates": [-147.3106313500732, -50.24306380288649]}}, {"type": "Feature", "properties": {"norad_id": 32357, "name": "FENGYUN 1C DEB", "group": "fengyun-1c-debris", "lat": 46.46600309204779, "lon": -152.39487047678347, "alt_km": 905.8475810459604, "timestamp": "2025-12-04T03:47:54.829424+00:00", "meta": {"OBJECT_NAME": "FENGYUN 1C DEB", "OBJECT_ID": "1999-025CZA", "EPOCH": "2025-12-01T08:46:16.056768", "MEAN_MOTION": 13.68446249, "ECCENTRICITY": 0.04916808, "INCLINATION": 98.8574, "RA_OF_ASC_NODE": 15.5829, "ARG_OF_PERICENTER": 217.6649, "MEAN_ANOMALY": 209.2141, "EPHEMERIS_TYPE": 0, "CLASSIFICATION_TYPE": "U", "NORAD_CAT_ID": 32357, "ELEMENT_SET_NO": 999, "REV_AT_EPOCH": 66632, "BSTAR": 0.0030086821, "MEAN_MOTION_DOT": 5.99e-05, "MEAN_MOTION_DDOT": 0}, "tle": {"line1": "1 32357U 99025CZA 25335.36546362  .00005990  00000+0  30087-2 0  9990", "line2": "2 32357  98.8574  15.5829 0491680 217.6649 209.2141 13.68446249666325"}}, "geometry": {"type": "Point", "coordinates": [-152.39487047678347, 46.46600309204779]}}, {"type": "Feature", "properties": {"norad_id": 32361, "name": "FENGYUN 1C DEB", "group": "fengyun-1c-debris", "lat": 29.308257156177888, "lon": 31.616425520043695, "alt_km": 696.2449511023324, "timestamp": "2025-12-04T03:47:54.829434+00:00", "meta": {"OBJECT_NAME": "FENGYUN 1C DEB", "OBJECT_ID": "1999-025CZE", "EPOCH": "2025-11-30T15:14:44.805984", "MEAN_MOTION": 14.50750787, "ECCENTRICITY": 0.00468278, "INCLINATION": 98.8638, "RA_OF_ASC_NODE": 32.9334, "ARG_OF_PERICENTER": 80.9929, "MEAN_ANOMALY": 279.656, "EPHEMERIS_TYPE": 0, "CLASSIFICATION_TYPE": "U", "NORAD_CAT_ID": 32361, "ELEMENT_SET_NO": 999, "REV_AT_EPOCH": 96169, "BSTAR": 0.0020354767, "MEAN_MOTION_DOT": 8.08e-05, "MEAN_MOTION_DDOT": 0}, "tle": {"line1": "1 32361U 99025CZE 25334.63524081  .00008080  00000+0  20355-2 0  9998", "line2": "2 32361  98.8638  32.9334 0046827  80.9929 279.6560 14.50750787961697"}}, "geometry": {"type": "Point", "coordinates": [31.616425520043695, 29.308257156177888]}}, {"type": "Feature", "properties": {"norad_id": 32362, "name": "FENGYUN 1C DEB", "group": "fengyun-1c-debris", "lat": 11.967638458349574, "lon": 131.31332294190838, "alt_km": 1170.4519496001121, "timestamp": "2025-12-04T03:47:54.829454+00:00", "meta": {"OBJECT_NAME": "FENGYUN 1C DEB", "OBJECT_ID": "1999-025CZF", "EPOCH": "2025-12-02T15:46:36.291936", "MEAN_MOTION": 13.65074661, "ECCENTRICITY": 0.02761813, "INCLINATION": 99.8438, "RA_OF_ASC_NODE": 307.6809, "ARG_OF_PERICENTER": 310.7121, "MEAN_ANOMALY": 47.0326, "EPHEMERIS_TYPE": 0, "CLASSIFICATION_TYPE": "U", "NORAD_CAT_ID": 32362, "ELEMENT_SET_NO": 999, "REV_AT_EPOCH": 90992, "BSTAR": 0.0045510285, "MEAN_MOTION_DOT": 4.736e-05, "MEAN_MOTION_DDOT": 0}, "tle": {"line1": "1 32362U 99025CZF 25336.65736449  .00004736  00000+0  45510-2 0  9990", "line2": "2 32362  99.8438 307.6809 0276181 310.7121  47.0326 13.65074661909922"}}, "geometry": {"type": "Point", "coordinates": [131.31332294190838, 11.967638458349574]}}, {"type": "Feature", "properties": {"norad_id": 32363, "name": "FENGYUN 1C DEB", "group": "fengyun-1c-debris", "lat": 65.54632010914344, "lon": -83.94304094008811, "alt_km": 434.2717237028628, "timestamp": "2025-12-04T03:47:54.829466+00:00", "meta": {"OBJECT_NAME": "FENGYUN 1C DEB", "OBJECT_ID": "1999-025CZG", "EPOCH": "2025-11-30T07:48:11.428128", "MEAN_MOTION": 15.44743653, "ECCENTRICITY": 0.00643712, "INCLINATION": 98.3308, "RA_OF_ASC_NODE": 290.4609, "ARG_OF_PERICENTER": 184.9051, "MEAN_ANOMALY": 175.1573, "EPHEMERIS_TYPE": 0, "CLASSIFICATION_TYPE": "U", "NORAD_CAT_ID": 32363, "ELEMENT_SET_NO": 999, "REV_AT_EPOCH": 96616, "BSTAR": 0.0017859799, "MEAN_MOTION_DOT": 0.00091049, "MEAN_MOTION_DDOT": 0}, "tle": {"line1": "1 32363U 99025CZG 25334.32513227  .00091049  00000+0  17860-2 0  9990", "line2": "2 32363  98.3308 290.4609 0064371 184.9051 175.1573 15.44743653966168"}}, "geometry": {"type": "Point", "coordinates": [-83.94304094008811, 65.54632010914344]}}, {"type": "Feature", "properties": {"norad_id": 32364, "name": "FENGYUN 1C DEB", "group": "fengyun-1c-debris", "lat": 50.621815519902576, "lon": 167.4803265403413, "alt_km": 929.6121667721391, "timestamp": "2025-12-04T03:47:54.829477+00:00", "meta": {"OBJECT_NAME": "FENGYUN 1C DEB", "OBJECT_ID": "1999-025CZH", "EPOCH": "2025-11-29T08:05:37.624992", "MEAN_MOTION": 14.14317962, "ECCENTRICITY": 0.01349396, "INCLINATION": 98.2918, "RA_OF_ASC_NODE": 173.2369, "ARG_OF_PERICENTER": 222.8285, "MEAN_ANOMALY": 136.2316, "EPHEMERIS_TYPE": 0, "CLASSIFICATION_TYPE": "U", "NORAD_CAT_ID": 32364, "ELEMENT_SET_NO": 999, "REV_AT_EPOCH": 63519, "BSTAR": 0.0022712328, "MEAN_MOTION_DOT": 4.699e-05, "MEAN_MOTION_DDOT": 0}, "tle": {"line1": "1 32364U 99025CZH 25333.33724103  .00004699  00000+0  22712-2 0  9995", "line2": "2 32364  98.2918 173.2369 0134939 222.8285 136.2316 14.14317962635190"}}, "geometry": {"type": "Point", "coordinates": [167.4803265403413, 50.621815519902576]}}]}